#aV2015 11  9  0  0  0.00000000     288 DD+AD WGS84 FIT  NGA
## 1870  86400.00000000   300.00000000 57335 0.0000000000000
+   31     1  2  3  4  5  6  7  8  9 11 12 13 14 15 16 17 18
+         19 20 21 22 23 24 25 26 27 28 29 30 31 32  0  0  0
+          0  0  0  0  0  0  0  0  0  0  0  0  0  0  0  0  0
+          0  0  0  0  0  0  0  0  0  0  0  0  0  0  0  0  0
+          0  0  0  0  0  0  0  0  0  0  0  0  0  0  0  0  0
++         2  2  2  2  2  2  2  2  2  2  2  2  2  2  2  2  2
++         2  2  2  2  2  2  2  2  2  2  2  2  2  2  0  0  0
++         0  0  0  0  0  0  0  0  0  0  0  0  0  0  0  0  0
++         0  0  0  0  0  0  0  0  0  0  0  0  0  0  0  0  0
++         0  0  0  0  0  0  0  0  0  0  0  0  0  0  0  0  0
%c cc cc ccc ccc cccc cccc cccc cccc ccccc ccccc ccccc ccccc
%c cc cc ccc ccc cccc cccc cccc cccc ccccc ccccc ccccc ccccc
%f  0.0000000  0.000000000  0.00000000000  0.000000000000000
%f  0.0000000  0.000000000  0.00000000000  0.000000000000000
%i    0    0    0    0      0      0      0      0         0
%i    0    0    0    0      0      0      0      0         0
/*      NGA, ST. LOUIS,MO.                                  
/*   EPHEMERIS COMPUTED FROM 2 DAYS OF DATA                 
/*   EPOCHA v2.4 SMOOTHER                                   
/*   G1762 IERS2010 SATAF SATAPC                            
*  2015 11  9  7 40  0.00000000
P  1   9612.430630 -20335.074271 -14036.656098      4.079758                    
V  1  15227.852719  -9438.943132  24429.546090      0.008010                    
P  2 -21838.271969  13128.720128  -6254.056697    595.295468                    
V  2   3981.333356  -8446.193469 -30208.806856      0.010148                    
P  3   1239.487156 -15607.589892 -21448.127448     15.134539                    
V  3  25661.029089   9186.658796  -5220.846745     -0.030981                    
P  4  16514.006256 -19838.994600  -6008.708256    -43.950645                    
V  4   7785.845721  -2054.142029  30205.304922     -0.055670                    
P  5 -20513.276132   4892.988109  16196.885292   -176.557242                    
V  5 -18674.525500  -9055.500327 -20636.708537      0.038175                    
P  6 -20636.194877   2009.547734 -16594.725020     91.887827                    
V  6  15129.559297 -14774.300981 -20614.341106      0.067675                    
P  7  -5570.966812 -14509.300810  21619.358356    480.837620                    
V  7  21817.546525 -16220.632926  -5675.710220     -0.010107                    
P  8   6792.609595 -21130.392286  14642.097042    -11.813398                    
V  8   5117.654545  17902.582057  23529.733642     -0.014257                    
P  9  -8410.469795 -24474.531181   5942.560798      7.738961                    
V  9   1542.245934  -7936.576693 -30459.592199      0.055084                    
P 11   8617.963738 -24463.755585  -6083.988952   -615.119664                    
V 11   7624.659964  -3836.919837  28935.683213     -0.021724                    
P 12  -4131.959538  14106.247227 -22235.425922    343.900072                    
V 12 -25578.224045 -11103.419962  -2096.518521      0.031518                    
P 13 -12568.826956  12923.391287  19406.924205   -162.945428                    
V 13  -2362.728746 -24774.062221  14766.792914     -0.028013                    
P 14  13748.546714  13458.513812 -18123.680457     22.844053                    
V 14    575.205844  23498.276238  17496.715134     -0.024258                    
P 15  -4985.805083  22368.891392  13027.538829   -281.209943                    
V 15  -6753.521215 -15834.979691  24744.658371     -0.019734                    
P 16  20826.535215  -2323.881920  16461.152013    -68.302404                    
V 16  18516.579938   9627.879081 -21600.096527      0.036630                    
P 17 -13940.002834 -13250.130760 -18100.188116   -193.463146                    
V 17  -1467.399603 -23496.097253  17817.380819     -0.011581                    
P 18  17383.820483  16179.654139  12679.934849    451.143834                    
V 18 -15371.856681  -2351.229885  24812.707236      0.037780                    
P 19  -5528.529687 -25202.319882  -5543.909274   -522.548830                    
V 19   2237.838333  -6993.919413  31216.156123     -0.004649                    
P 20  -4424.008917  15253.827423  21129.692630    369.597284                    
V 20 -26262.188672  -7608.708139     67.659028      0.028975                    
P 21  10023.786144  12636.788981  21816.101642   -492.282303                    
V 21 -20012.524855  16825.400507   -888.724303     -0.024690                    
P 22  25029.832477   9167.241109    518.564836    408.817278                    
V 22  -1633.503312   3509.491316  30769.587882      0.036058                    
P 23    388.737919 -25538.313075  -6241.660324   -143.455781                    
V 23   4767.738441   7586.749881 -30370.208625     -0.020870                    
P 24 -11754.292474  20776.747206 -11498.093398     -7.685883                    
V 24 -12924.979462   7384.459637  26802.762461     -0.006057                    
P 25  10213.908062  16825.418216 -18012.609008    -64.769202                    
V 25 -21520.345364  -6888.608867 -18575.357491     -0.057177                    
P 26  25166.973976   3628.818453   7705.084524   -115.437965                    
V 26   8243.116442   5877.765763 -29688.552519     -0.150700                    
P 27  12656.624241 -10605.233360  20750.956540     34.397906                    
V 27   5234.951178  25899.661506  10154.289985      0.031617                    
P 28 -22826.625885 -13299.752162   3734.374911    480.182540                    
V 28   4306.414983     60.197031  31875.594914      0.026759                    
P 29   5243.053790  25812.670819   3576.957316    643.595171                    
V 29  -1796.042772   4734.577785 -31623.617504      0.017096                    
P 30 -15438.077090  -6895.635803  20502.583771     54.169049                    
V 30  20725.414961 -15786.129617  10216.258472      0.057207                    
P 31  21326.732799  -2896.444104 -15661.068971    295.977379                    
V 31 -14923.767267  13334.503910 -22264.757455     -0.015253                    
P 32  13334.658556 -10085.092095 -20583.893458     11.350478                    
V 32  23147.678739  12274.991590   9544.400708      0.117676                    
EOF
